ENTRYSAT                
1 44429U 98067QP  19265.52666102  .00007895  00000-0  13291-3 0  9992
2 44429  51.6407 237.6251 0004019  53.4272 306.7087 15.52710363 12660
VCC C                   
1 44430U 98067QQ  19266.17171129  .00008642  00000-0  14448-3 0  9992
2 44430  51.6406 234.4335 0004264  63.4812 296.6615 15.52765756 11582
VCC B                   
1 44431U 98067QR  19266.17541943  .00006818  00000-0  11644-3 0  9996
2 44431  51.6407 234.4577 0004335  61.7050 298.4377 15.52560078 12706
